[{"OBJECT_NAME":"STARLINK-5649","OBJECT_ID":"2023-013Z","EPOCH":"2026-03-09T00:56:02.592960","MEAN_MOTION":15.02538469,"ECCENTRICITY":0.00013965,"INCLINATION":43.0046,"RA_OF_ASC_NODE":303.6873,"ARG_OF_PERICENTER":266.6859,"MEAN_ANOMALY":93.3824,"EPHEMERIS_TYPE":0,"CLASSIFICATION_TYPE":"U","NORAD_CAT_ID":55354,"ELEMENT_SET_NO":999,"REV_AT_EPOCH":17161,"BSTAR":5.906213e-5,"MEAN_MOTION_DOT":5.94e-6,"MEAN_MOTION_DDOT":0},{"OBJECT_NAME":"CZ-6A DEB","OBJECT_ID":"2024-140ABZ","EPOCH":"2026-03-09T13:17:15.461088","MEAN_MOTION":14.68773562,"ECCENTRICITY":0.01674753,"INCLINATION":88.9962,"RA_OF_ASC_NODE":280.8142,"ARG_OF_PERICENTER":196.7539,"MEAN_ANOMALY":162.8109,"EPHEMERIS_TYPE":0,"CLASSIFICATION_TYPE":"U","NORAD_CAT_ID":61809,"ELEMENT_SET_NO":999,"REV_AT_EPOCH":8094,"BSTAR":0.00036405273,"MEAN_MOTION_DOT":2.652e-5,"MEAN_MOTION_DDOT":0}]
